{"type": "FeatureCollection", "features": [ {"type": "Feature", "properties": {"norad_id": 40118, "name": "GAOFEN-2", "group": "resource", "lat": -76.20371626933672, "lon": -157.4577604027204, "alt_km": 640.8040525688502, "timestamp": "2025-12-24T11:32:59.661001+00:00", "meta": {"OBJECT_NAME": "GAOFEN-2", "OBJECT_ID": "2014-049A", "EPOCH": "2025-12-24T03:53:51.296928", "MEAN_MOTION": 14.80626723, "ECCENTRICITY": 0.0008754, "INCLINATION": 98.0368, "RA_OF_ASC_NODE": 57.3502, "ARG_OF_PERICENTER": 81.4594, "MEAN_ANOMALY": 278.761, "EPHEMERIS_TYPE": 0, "CLASSIFICATION_TYPE": "U", "NORAD_CAT_ID": 40118, "ELEMENT_SET_NO": 999, "REV_AT_EPOCH": 61333, "BSTAR": 6.6621e-05, "MEAN_MOTION_DOT": 4.58e-06, "MEAN_MOTION_DDOT": 0}, "tle": {"line1": "1 40118U 14049A   25358.16239927  .00000458  00000+0  66621-4 0  9995", "line2": "2 40118  98.0368  57.3502 0008754  81.4594 278.7610 14.80626723613333"}}, "geometry": {"type": "Point", "coordinates": [-157.4577604027204, -76.20371626933672]}}, {"type": "Feature", "properties": {"norad_id": 40143, "name": "YAOGAN-21", "group": "resource", "lat": -60.34117000613677, "lon": -151.49573895964227, "alt_km": 504.76125372192837, "timestamp": "2025-12-24T11:32:59.661012+00:00", "meta": {"OBJECT_NAME": "YAOGAN-21", "OBJECT_ID": "2014-053A", "EPOCH": "2025-12-24T04:11:25.892736", "MEAN_MOTION": 15.2378408, "ECCENTRICITY": 0.0008576, "INCLINATION": 97.1737, "RA_OF_ASC_NODE": 40.9896, "ARG_OF_PERICENTER": 4.3702, "MEAN_ANOMALY": 355.7609, "EPHEMERIS_TYPE": 0, "CLASSIFICATION_TYPE": "U", "NORAD_CAT_ID": 40143, "ELEMENT_SET_NO": 999, "REV_AT_EPOCH": 62828, "BSTAR": 0.00014362, "MEAN_MOTION_DOT": 3.391e-05, "MEAN_MOTION_DDOT": 0}, "tle": {"line1": "1 40143U 14053A   25358.17460524  .00003391  00000+0  14362-3 0  9991", "line2": "2 40143  97.1737  40.9896 0008576   4.3702 355.7609 15.23784080628285"}}, "geometry": {"type": "Point", "coordinates": [-151.49573895964227, -60.34117000613677]}}, {"type": "Feature", "properties": {"norad_id": 40275, "name": "YAOGAN-22", "group": "resource", "lat": -67.18412008204645, "lon": 168.8908366330914, "alt_km": 1207.4385055466537, "timestamp": "2025-12-24T11:32:59.661023+00:00", "meta": {"OBJECT_NAME": "YAOGAN-22", "OBJECT_ID": "2014-063A", "EPOCH": "2025-12-24T02:46:40.213344", "MEAN_MOTION": 13.15523047, "ECCENTRICITY": 0.0006076, "INCLINATION": 100.7429, "RA_OF_ASC_NODE": 141.6962, "ARG_OF_PERICENTER": 220.9398, "MEAN_ANOMALY": 139.1257, "EPHEMERIS_TYPE": 0, "CLASSIFICATION_TYPE": "U", "NORAD_CAT_ID": 40275, "ELEMENT_SET_NO": 999, "REV_AT_EPOCH": 53679, "BSTAR": 6.6523e-05, "MEAN_MOTION_DOT": -2.2e-07, "MEAN_MOTION_DDOT": 0}, "tle": {"line1": "1 40275U 14063A   25358.11574321 -.00000022  00000+0  66523-4 0  9999", "line2": "2 40275 100.7429 141.6962 0006076 220.9398 139.1257 13.15523047536793"}}, "geometry": {"type": "Point", "coordinates": [168.8908366330914, -67.18412008204645]}}, {"type": "Feature", "properties": {"norad_id": 40298, "name": "ASNARO", "group": "resource", "lat": 63.69122454355241, "lon": -90.69552635175894, "alt_km": 496.7925566249078, "timestamp": "2025-12-24T11:32:59.661033+00:00", "meta": {"OBJECT_NAME": "ASNARO", "OBJECT_ID": "2014-070A", "EPOCH": "2025-12-24T04:43:25.972896", "MEAN_MOTION": 15.19725139, "ECCENTRICITY": 0.0005848, "INCLINATION": 97.364, "RA_OF_ASC_NODE": 73.8634, "ARG_OF_PERICENTER": 92.0967, "MEAN_ANOMALY": 268.0937, "EPHEMERIS_TYPE": 0, "CLASSIFICATION_TYPE": "U", "NORAD_CAT_ID": 40298, "ELEMENT_SET_NO": 999, "REV_AT_EPOCH": 61743, "BSTAR": 0.0006121, "MEAN_MOTION_DOT": 0.0001303, "MEAN_MOTION_DDOT": 0}, "tle": {"line1": "1 40298U 14070A   25358.19682839  .00013030  00000+0  61210-3 0  9993", "line2": "2 40298  97.3640  73.8634 0005848  92.0967 268.0937 15.19725139617432"}}, "geometry": {"type": "Point", "coordinates": [-90.69552635175894, 63.69122454355241]}}, {"type": "Feature", "properties": {"norad_id": 40310, "name": "YAOGAN-24", "group": "resource", "lat": 54.51296979646906, "lon": 118.08107228078693, "alt_km": 628.9927763610667, "timestamp": "2025-12-24T11:32:59.661047+00:00", "meta": {"OBJECT_NAME": "YAOGAN-24", "OBJECT_ID": "2014-072A", "EPOCH": "2025-12-24T04:47:35.452896", "MEAN_MOTION": 14.76199097, "ECCENTRICITY": 0.0015182, "INCLINATION": 98.1232, "RA_OF_ASC_NODE": 129.3547, "ARG_OF_PERICENTER": 103.9176, "MEAN_ANOMALY": 256.3723, "EPHEMERIS_TYPE": 0, "CLASSIFICATION_TYPE": "U", "NORAD_CAT_ID": 40310, "ELEMENT_SET_NO": 999, "REV_AT_EPOCH": 59790, "BSTAR": 0.0001617, "MEAN_MOTION_DOT": 1.068e-05, "MEAN_MOTION_DDOT": 0}, "tle": {"line1": "1 40310U 14072A   25358.19971589  .00001068  00000+0  16170-3 0  9996", "line2": "2 40310  98.1232 129.3547 0015182 103.9176 256.3723 14.76199097597901"}}, "geometry": {"type": "Point", "coordinates": [118.08107228078693, 54.51296979646906]}}, {"type": "Feature", "properties": {"norad_id": 40336, "name": "CBERS 4", "group": "resource", "lat": -58.61550551748766, "lon": -137.79971303086543, "alt_km": 781.445144148126, "timestamp": "2025-12-24T11:32:59.661060+00:00", "meta": {"OBJECT_NAME": "CBERS 4", "OBJECT_ID": "2014-079A", "EPOCH": "2025-12-24T05:25:08.064192", "MEAN_MOTION": 14.35521552, "ECCENTRICITY": 0.000186, "INCLINATION": 98.3291, "RA_OF_ASC_NODE": 55.8489, "ARG_OF_PERICENTER": 100.6054, "MEAN_ANOMALY": 259.5342, "EPHEMERIS_TYPE": 0, "CLASSIFICATION_TYPE": "U", "NORAD_CAT_ID": 40336, "ELEMENT_SET_NO": 999, "REV_AT_EPOCH": 57885, "BSTAR": 1.8279e-05, "MEAN_MOTION_DOT": 1.1e-07, "MEAN_MOTION_DDOT": 0}, "tle": {"line1": "1 40336U 14079A   25358.22578778  .00000011  00000+0  18279-4 0  9998", "line2": "2 40336  98.3291  55.8489 0001860 100.6054 259.5342 14.35521552578856"}}, "geometry": {"type": "Point", "coordinates": [-137.79971303086543, -58.61550551748766]}}, {"type": "Feature", "properties": {"norad_id": 40362, "name": "YAOGAN-26", "group": "resource", "lat": -78.73923432484649, "lon": 140.21734921936397, "alt_km": 454.4850514151967, "timestamp": "2025-12-24T11:32:59.661071+00:00", "meta": {"OBJECT_NAME": "YAOGAN-26", "OBJECT_ID": "2014-088A", "EPOCH": "2025-12-24T04:10:46.076160", "MEAN_MOTION": 15.39692501, "ECCENTRICITY": 0.0004608, "INCLINATION": 97.064, "RA_OF_ASC_NODE": 358.4427, "ARG_OF_PERICENTER": 354.8985, "MEAN_ANOMALY": 5.2214, "EPHEMERIS_TYPE": 0, "CLASSIFICATION_TYPE": "U", "NORAD_CAT_ID": 40362, "ELEMENT_SET_NO": 999, "REV_AT_EPOCH": 61070, "BSTAR": 0.00056183, "MEAN_MOTION_DOT": 0.00022155, "MEAN_MOTION_DDOT": 0}, "tle": {"line1": "1 40362U 14088A   25358.17414440  .00022155  00000+0  56183-3 0  9994", "line2": "2 40362  97.0640 358.4427 0004608 354.8985   5.2214 15.39692501610705"}}, "geometry": {"type": "Point", "coordinates": [140.21734921936397, -78.73923432484649]}}, {"type": "Feature", "properties": {"norad_id": 40376, "name": "SMAP", "group": "resource", "lat": 2.823320274976155, "lon": -176.56025010130054, "alt_km": 684.904431085829, "timestamp": "2025-12-24T11:32:59.661081+00:00", "meta": {"OBJECT_NAME": "SMAP", "OBJECT_ID": "2015-003A", "EPOCH": "2025-12-24T02:32:18.246336", "MEAN_MOTION": 14.63358546, "ECCENTRICITY": 0.0001229, "INCLINATION": 98.129, "RA_OF_ASC_NODE": 2.6658, "ARG_OF_PERICENTER": 92.1837, "MEAN_ANOMALY": 267.9506, "EPHEMERIS_TYPE": 0, "CLASSIFICATION_TYPE": "U", "NORAD_CAT_ID": 40376, "ELEMENT_SET_NO": 999, "REV_AT_EPOCH": 58201, "BSTAR": 0.0001102, "MEAN_MOTION_DOT": 5.22e-06, "MEAN_MOTION_DDOT": 0}, "tle": {"line1": "1 40376U 15003A   25358.10576674  .00000522  00000+0  11020-3 0  9993", "line2": "2 40376  98.1290   2.6658 0001229  92.1837 267.9506 14.63358546582018"}}, "geometry": {"type": "Point", "coordinates": [-176.56025010130054, 2.823320274976155]}}, {"type": "Feature", "properties": {"norad_id": 40536, "name": "KOMPSAT-3A", "group": "resource", "lat": 38.19130312111268, "lon": -32.61456313932303, "alt_km": 428.70861583026544, "timestamp": "2025-12-24T11:32:59.661091+00:00", "meta": {"OBJECT_NAME": "KOMPSAT-3A", "OBJECT_ID": "2015-014A", "EPOCH": "2025-12-24T05:09:47.313216", "MEAN_MOTION": 15.44355241, "ECCENTRICITY": 0.000561, "INCLINATION": 97.6805, "RA_OF_ASC_NODE": 333.1987, "ARG_OF_PERICENTER": 101.7898, "MEAN_ANOMALY": 258.3979, "EPHEMERIS_TYPE": 0, "CLASSIFICATION_TYPE": "U", "NORAD_CAT_ID": 40536, "ELEMENT_SET_NO": 999, "REV_AT_EPOCH": 59472, "BSTAR": 0.00046086, "MEAN_MOTION_DOT": 0.00021206, "MEAN_MOTION_DDOT": 0}, "tle": {"line1": "1 40536U 15014A   25358.21513094  .00021206  00000+0  46086-3 0  9994", "line2": "2 40536  97.6805 333.1987 0005610 101.7898 258.3979 15.44355241594729"}}, "geometry": {"type": "Point", "coordinates": [-32.61456313932303, 38.19130312111268]}}, {"type": "Feature", "properties": {"norad_id": 40697, "name": "SENTINEL-2A", "group": "resource", "lat": 66.25998920665765, "lon": -89.09058001832636, "alt_km": 781.839236629563, "timestamp": "2025-12-24T11:32:59.661102+00:00", "meta": {"OBJECT_NAME": "SENTINEL-2A", "OBJECT_ID": "2015-028A", "EPOCH": "2025-12-24T04:18:51.224256", "MEAN_MOTION": 14.30809934, "ECCENTRICITY": 0.0001059, "INCLINATION": 98.5732, "RA_OF_ASC_NODE": 70.5521, "ARG_OF_PERICENTER": 90.3191, "MEAN_ANOMALY": 269.8113, "EPHEMERIS_TYPE": 0, "CLASSIFICATION_TYPE": "U", "NORAD_CAT_ID": 40697, "ELEMENT_SET_NO": 999, "REV_AT_EPOCH": 54870, "BSTAR": 7.8929e-05, "MEAN_MOTION_DOT": 1.63e-06, "MEAN_MOTION_DDOT": 0}, "tle": {"line1": "1 40697U 15028A   25358.17975954  .00000163  00000+0  78929-4 0  9990", "line2": "2 40697  98.5732  70.5521 0001059  90.3191 269.8113 14.30809934548705"}}, "geometry": {"type": "Point", "coordinates": [-89.09058001832636, 66.25998920665765]}}]}